DMSP 5D-3 F16 (USA 172) 
1 28054U 03048A   26154.85217593  .00000015  00000+0  31665-4 0  9992
2 28054  98.9894 178.5918 0007043 175.6429 174.4554 14.14481806167590
METEOSAT-9 (MSG-2)      
1 28912U 05049B   26154.86114579  .00000133  00000+0  00000+0 0  9994
2 28912   9.3308  54.2974 0002358  37.5703 156.1962  1.00267174  6869
DMSP 5D-3 F17 (USA 191) 
1 29522U 06050A   26154.87595827  .00000047  00000+0  46351-4 0  9993
2 29522  98.7378 161.7184 0011325  93.3870 266.8600 14.14990990 10548
FENGYUN 3A              
1 32958U 08026A   26154.44398347  .00000099  00000+0  67514-4 0  9997
2 32958  98.6881  95.5346 0008990 160.5127 199.6395 14.19568113933454
GOES 14                 
1 35491U 09033A   26154.66770676 -.00000222  00000+0  00000+0 0  9995
2 35491   1.6553  83.2028 0002159 358.6379 200.1950  1.00115798  6459
DMSP 5D-3 F18 (USA 210) 
1 35951U 09057A   26154.84643996  .00000268  00000+0  16193-3 0  9999
2 35951  98.9032 135.6449 0009954 292.0113  68.0002 14.14888925857706
EWS-G2 (GOES 15)        
1 36411U 10008A   26154.86469913  .00000031  00000+0  00000+0 0  9990
2 36411   1.2412  83.0864 0005503  34.9157 149.1491  1.00276059 59506
COMS 1                  
1 36744U 10032A   26152.73864208 -.00000334  00000+0  00000+0 0  9993
2 36744   4.7700  75.5552 0001064 351.7830 216.9341  1.00271905 50939
FENGYUN 3B              
1 37214U 10059A   26154.94999041 -.00000242  00000+0 -10168-3 0  9993
2 37214  98.9622 200.9074 0021213 222.4069 260.0579 14.14836935805557
SUOMI NPP               
1 37849U 11061A   26154.87769284  .00000095  00000+0  65983-4 0  9997
2 37849  98.7951  95.8450 0002225  35.2885 324.8438 14.19514463756553
METEOSAT-10 (MSG-3)     
1 38552U 12035B   26154.92349201  .00000005  00000+0  00000+0 0  9995
2 38552   4.6402  61.0788 0001856 337.7141 186.1957  1.00275518 50727
METOP-B                 
1 38771U 12049A   26154.88564881  .00000123  00000+0  76238-4 0  9993
2 38771  98.6510 206.6496 0002958  49.6336 310.5099 14.21428927711371
INSAT-3D                
1 39216U 13038B   26154.87780921 -.00000327  00000+0  00000+0 0  9997
2 39216   1.8916  82.7089 0000937 346.3856 268.7609  1.00269635 46949
FENGYUN 3C              
1 39260U 13052A   26154.89852797  .00000114  00000+0  79027-4 0  9998
2 39260  98.4980 129.3841 0015786  63.6427 296.6366 14.15751834656681
METEOR-M 2              
1 40069U 14037A   26154.91225841  .00000285  00000+0  14961-3 0  9992
2 40069  98.5108 131.1213 0007048  76.3124 283.8838 14.21457844617437
HIMAWARI-8              
1 40267U 14060A   26154.87997589 -.00000263  00000+0  00000+0 0  9990
2 40267   0.0157 359.2856 0000982  87.9111 262.6021  1.00272840 42625
FENGYUN 2G              
1 40367U 14090A   26154.80052208 -.00000292  00000+0  00000+0 0  9999
2 40367   5.6052  72.9774 0003441 153.7233  53.2439  1.00279146 41867
METEOSAT-11 (MSG-4)     
1 40732U 15034A   26154.92531203  .00000074  00000+0  00000+0 0  9991
2 40732   3.1692  71.1826 0001628   3.4772 160.1821  1.00276165  7086
ELEKTRO-L 2             
1 41105U 15074A   26154.06484462 -.00000108  00000+0  00000+0 0  9998
2 41105   6.6592  70.6949 0001283 281.6013 268.0921  1.00272380 38362
SENTINEL-3A             
1 41335U 16011A   26154.89189002  .00000130  00000+0  71940-4 0  9998
2 41335  98.6251 222.4659 0001305 106.0870 254.0454 14.26736125536162
INSAT-3DR               
1 41752U 16054A   26154.79548693 -.00000065  00000+0  00000+0 0  9994
2 41752   0.1395  86.9553 0010320 189.2658 336.4092  1.00271325 35680
HIMAWARI-9              
1 41836U 16064A   26154.87997589 -.00000263  00000+0  00000+0 0  9999
2 41836   0.0411 169.8886 0001563 311.0224 228.9789  1.00270670 35077
GOES 16                 
1 41866U 16071A   26154.90268266 -.00000079  00000+0  00000+0 0  9992
2 41866   0.3065  85.6559 0000692 317.4563  69.5561  1.00271246 34973
FENGYUN 4A              
1 41882U 16077A   26154.94793336 -.00000345  00000+0  00000+0 0  9997
2 41882   2.2896  80.4279 0008164 151.6857 125.2600  1.00276726 34794
CYGFM05                 
1 41884U 16078A   26154.90185946  .00024619  00000+0  34109-3 0  9998
2 41884  34.9582 348.5246 0007718  15.4997 344.5962 15.56049764526685
CYGFM04                 
1 41885U 16078B   26154.84918617  .00032093  00000+0  37212-3 0  9994
2 41885  34.9334 317.2233 0006274  59.2059 300.9283 15.60725588526919
CYGFM02                 
1 41886U 16078C   26154.81105752  .00038278  00000+0  39646-3 0  9994
2 41886  34.9417 312.3956 0007242  61.1306 299.0146 15.63583658527070
CYGFM01                 
1 41887U 16078D   26154.89628315  .00025632  00000+0  34649-3 0  9996
2 41887  34.9412 349.7250 0007513   9.4711 350.6153 15.56704983526634
CYGFM08                 
1 41888U 16078E   26154.87820112  .00029991  00000+0  36745-3 0  9995
2 41888  34.9441 329.7687 0008331  42.3043 317.8324 15.59280840526899
CYGFM07                 
1 41890U 16078G   26154.83819993  .00030504  00000+0  37249-3 0  9991
2 41890  34.9457 318.3886 0006662  58.5749 301.5627 15.59381184526913
CYGFM03                 
1 41891U 16078H   26154.87315423  .00030010  00000+0  36657-3 0  9999
2 41891  34.9413 320.0972 0006242  45.5037 314.6198 15.59378968526893
